start=new Date('2022-12-13T00:00:00.000Z').valueOf();
sats=[{"NORAD_CAT_ID":"47912","FILE":"3694231","OBJECT_NAME":"STARLINK-2372","LAUNCH_DATE":"2021-03-14","EPHEMERIS_TYPE":"0","RCS_SIZE":"LARGE","SITE":"AFETR","OBJECT_ID":"2021-021BE","GP_ID":"220173334","CLASSIFICATION_TYPE":"U","EPOCH":"2022-12-12T14:02:44.278080","OBJECT_TYPE":"PAYLOAD","APOAPSIS":"548.429","TLE_LINE1":"1 47912U 21021BE  22346.58523470  .00004051  00000-0  29065-3 0  9995","MEAN_ELEMENT_THEORY":"SGP4","DECAY_DATE":null,"MEAN_MOTION":"15.06405066","INCLINATION":"53.0525","PERIAPSIS":"545.967","ARG_OF_PERICENTER":"58.2302","TLE_LINE2":"2 47912  53.0525 182.7789 0001778  58.2302 301.8860 15.06405066 97386","CENTER_NAME":"EARTH","ELEMENT_SET_NO":"999","BSTAR":"0.00029065000000","REF_FRAME":"TEME","TIME_SYSTEM":"UTC","MEAN_MOTION_DDOT":"0.0000000000000","RA_OF_ASC_NODE":"182.7789","SEMIMAJOR_AXIS":"6925.333","REV_AT_EPOCH":"9738","ECCENTRICITY":"0.00017780","COUNTRY_CODE":"US","MEAN_ANOMALY":"301.8860","PERIOD":"95.592","MEAN_MOTION_DOT":"0.00004051"},{"MEAN_MOTION":"15.06402952","ARG_OF_PERICENTER":"66.6332","PERIAPSIS":"545.945","INCLINATION":"53.0534","TLE_LINE2":"2 47913  53.0534 193.2285 0001819  66.6332 293.4848 15.06402952 97245","CENTER_NAME":"EARTH","ELEMENT_SET_NO":"999","BSTAR":"0.00027901000000","REF_FRAME":"TEME","TIME_SYSTEM":"UTC","MEAN_MOTION_DDOT":"0.0000000000000","RA_OF_ASC_NODE":"193.2285","SEMIMAJOR_AXIS":"6925.340","REV_AT_EPOCH":"9724","ECCENTRICITY":"0.00018190","COUNTRY_CODE":"US","MEAN_ANOMALY":"293.4848","PERIOD":"95.592","MEAN_MOTION_DOT":"0.00003877","FILE":"3694231","NORAD_CAT_ID":"47913","LAUNCH_DATE":"2021-03-14","OBJECT_NAME":"STARLINK-2374","EPHEMERIS_TYPE":"0","RCS_SIZE":"LARGE","SITE":"AFETR","OBJECT_ID":"2021-021BF","GP_ID":"220173335","CLASSIFICATION_TYPE":"U","OBJECT_TYPE":"PAYLOAD","EPOCH":"2022-12-12T14:13:27.576192","APOAPSIS":"548.464","TLE_LINE1":"1 47913U 21021BF  22346.59268028  .00003877  00000-0  27901-3 0  9994","MEAN_ELEMENT_THEORY":"SGP4","DECAY_DATE":null},{"MEAN_MOTION":"15.06400134","INCLINATION":"53.0535","PERIAPSIS":"546.314","ARG_OF_PERICENTER":"69.2447","CENTER_NAME":"EARTH","TLE_LINE2":"2 47914  53.0535 191.4786 0001299  69.2447 290.8681 15.06400134 97775","ELEMENT_SET_NO":"999","REF_FRAME":"TEME","BSTAR":"0.00017663000000","MEAN_MOTION_DDOT":"0.0000000000000","TIME_SYSTEM":"UTC","RA_OF_ASC_NODE":"191.4786","SEMIMAJOR_AXIS":"6925.348","ECCENTRICITY":"0.00012990","REV_AT_EPOCH":"9777","COUNTRY_CODE":"US","PERIOD":"95.592","MEAN_ANOMALY":"290.8681","MEAN_MOTION_DOT":"0.00002350","FILE":"3695286","NORAD_CAT_ID":"47914","OBJECT_NAME":"STARLINK-2375","LAUNCH_DATE":"2021-03-14","EPHEMERIS_TYPE":"0","SITE":"AFETR","RCS_SIZE":"LARGE","OBJECT_ID":"2021-021BG","CLASSIFICATION_TYPE":"U","GP_ID":"220206712","OBJECT_TYPE":"PAYLOAD","EPOCH":"2022-12-12T21:02:04.544736","APOAPSIS":"548.113","TLE_LINE1":"1 47914U 21021BG  22346.87644149  .00002350  00000-0  17663-3 0  9997","MEAN_ELEMENT_THEORY":"SGP4","DECAY_DATE":null},{"RCS_SIZE":"LARGE","SITE":"AFETR","EPHEMERIS_TYPE":"0","OBJECT_ID":"2021-021BH","OBJECT_NAME":"STARLINK-2376","LAUNCH_DATE":"2021-03-14","NORAD_CAT_ID":"47915","FILE":"3694071","TLE_LINE1":"1 47915U 21021BH  22346.01255108  .00003284  00000-0  23930-3 0  9998","DECAY_DATE":null,"MEAN_ELEMENT_THEORY":"SGP4","GP_ID":"220165855","CLASSIFICATION_TYPE":"U","APOAPSIS":"548.254","EPOCH":"2022-12-12T00:18:04.413312","OBJECT_TYPE":"PAYLOAD","BSTAR":"0.00023930000000","REF_FRAME":"TEME","TIME_SYSTEM":"UTC","MEAN_MOTION_DDOT":"0.0000000000000","INCLINATION":"53.0549","PERIAPSIS":"546.209","ARG_OF_PERICENTER":"110.4183","MEAN_MOTION":"15.06394125","ELEMENT_SET_NO":"999","TLE_LINE2":"2 47915  53.0549 190.3485 0001477 110.4183 249.6964 15.06394125 97722","CENTER_NAME":"EARTH","COUNTRY_CODE":"US","MEAN_MOTION_DOT":"0.00003284","MEAN_ANOMALY":"249.6964","PERIOD":"95.593","RA_OF_ASC_NODE":"190.3485","REV_AT_EPOCH":"9772","ECCENTRICITY":"0.00014770","SEMIMAJOR_AXIS":"6925.367"},{"CLASSIFICATION_TYPE":"U","GP_ID":"220166605","APOAPSIS":"548.152","OBJECT_TYPE":"PAYLOAD","EPOCH":"2022-12-12T12:24:33.551136","TLE_LINE1":"1 47916U 21021BJ  22346.51705499  .00001980  00000-0  15179-3 0  9994","DECAY_DATE":null,"MEAN_ELEMENT_THEORY":"SGP4","LAUNCH_DATE":"2021-03-14","OBJECT_NAME":"STARLINK-2378","NORAD_CAT_ID":"47916","FILE":"3694071","SITE":"AFETR","RCS_SIZE":"LARGE","EPHEMERIS_TYPE":"0","OBJECT_ID":"2021-021BJ","RA_OF_ASC_NODE":"173.0950","ECCENTRICITY":"0.00013590","REV_AT_EPOCH":"9798","SEMIMAJOR_AXIS":"6925.346","COUNTRY_CODE":"US","MEAN_MOTION_DOT":"0.00001980","PERIOD":"95.592","MEAN_ANOMALY":"289.9111","PERIAPSIS":"546.270","ARG_OF_PERICENTER":"70.2024","INCLINATION":"53.0523","MEAN_MOTION":"15.06400754","ELEMENT_SET_NO":"999","CENTER_NAME":"EARTH","TLE_LINE2":"2 47916  53.0523 173.0950 0001359  70.2024 289.9111 15.06400754 97981","REF_FRAME":"TEME","BSTAR":"0.00015179000000","MEAN_MOTION_DDOT":"0.0000000000000","TIME_SYSTEM":"UTC"},{"FILE":"3695286","NORAD_CAT_ID":"47917","OBJECT_NAME":"STARLINK-2397","LAUNCH_DATE":"2021-03-14","EPHEMERIS_TYPE":"0","SITE":"AFETR","RCS_SIZE":"LARGE","OBJECT_ID":"2021-021BK","CLASSIFICATION_TYPE":"U","GP_ID":"220207962","EPOCH":"2022-12-12T14:09:24.799104","OBJECT_TYPE":"PAYLOAD","APOAPSIS":"548.155","TLE_LINE1":"1 47917U 21021BK  22346.58987036  .00002891  00000-0  21288-3 0  9991","MEAN_ELEMENT_THEORY":"SGP4","DECAY_DATE":null,"MEAN_MOTION":"15.06398016","ARG_OF_PERICENTER":"81.9289","PERIAPSIS":"546.285","INCLINATION":"53.0525","CENTER_NAME":"EARTH","TLE_LINE2":"2 47917  53.0525 182.7530 0001350  81.9289 278.1853 15.06398016 97843","ELEMENT_SET_NO":"999","REF_FRAME":"TEME","BSTAR":"0.00021288000000","MEAN_MOTION_DDOT":"0.0000000000000","TIME_SYSTEM":"UTC","RA_OF_ASC_NODE":"182.7530","SEMIMAJOR_AXIS":"6925.355","ECCENTRICITY":"0.00013500","REV_AT_EPOCH":"9784","COUNTRY_CODE":"US","PERIOD":"95.592","MEAN_ANOMALY":"278.1853","MEAN_MOTION_DOT":"0.00002891"},{"LAUNCH_DATE":"2021-03-14","OBJECT_NAME":"STARLINK-2398","FILE":"3695286","NORAD_CAT_ID":"47918","OBJECT_ID":"2021-021BL","RCS_SIZE":"LARGE","SITE":"AFETR","EPHEMERIS_TYPE":"0","APOAPSIS":"548.179","EPOCH":"2022-12-12T14:20:01.551552","OBJECT_TYPE":"PAYLOAD","GP_ID":"220207211","CLASSIFICATION_TYPE":"U","DECAY_DATE":null,"MEAN_ELEMENT_THEORY":"SGP4","TLE_LINE1":"1 47918U 21021BL  22346.59724018  .00000219  00000-0  33601-4 0  9997","ELEMENT_SET_NO":"999","TLE_LINE2":"2 47918  53.0527 182.7364 0001368  74.5635 285.5505 15.06394253 97871","CENTER_NAME":"EARTH","INCLINATION":"53.0527","PERIAPSIS":"546.284","ARG_OF_PERICENTER":"74.5635","MEAN_MOTION":"15.06394253","TIME_SYSTEM":"UTC","MEAN_MOTION_DDOT":"0.0000000000000","BSTAR":"0.00003360100000","REF_FRAME":"TEME","REV_AT_EPOCH":"9787","ECCENTRICITY":"0.00013680","SEMIMAJOR_AXIS":"6925.366","RA_OF_ASC_NODE":"182.7364","MEAN_MOTION_DOT":"0.00000219","MEAN_ANOMALY":"285.5505","PERIOD":"95.593","COUNTRY_CODE":"US"},{"MEAN_ELEMENT_THEORY":"SGP4","DECAY_DATE":null,"TLE_LINE1":"1 47919U 21021BM  22345.98444893  .00004465  00000-0  31850-3 0  9990","EPOCH":"2022-12-11T23:37:36.387552","OBJECT_TYPE":"PAYLOAD","APOAPSIS":"548.237","CLASSIFICATION_TYPE":"U","GP_ID":"220173504","OBJECT_ID":"2021-021BM","EPHEMERIS_TYPE":"0","SITE":"AFETR","RCS_SIZE":"LARGE","FILE":"3694245","NORAD_CAT_ID":"47919","OBJECT_NAME":"STARLINK-2405","LAUNCH_DATE":"2021-03-14","PERIOD":"95.593","MEAN_ANOMALY":"288.9565","MEAN_MOTION_DOT":"0.00004465","COUNTRY_CODE":"US","SEMIMAJOR_AXIS":"6925.374","ECCENTRICITY":"0.00014410","REV_AT_EPOCH":"9714","RA_OF_ASC_NODE":"195.4851","MEAN_MOTION_DDOT":"0.0000000000000","TIME_SYSTEM":"UTC","REF_FRAME":"TEME","BSTAR":"0.00031850000000","CENTER_NAME":"EARTH","TLE_LINE2":"2 47919  53.0534 195.4851 0001441  71.1580 288.9565 15.06391644 97140","ELEMENT_SET_NO":"999","MEAN_MOTION":"15.06391644","ARG_OF_PERICENTER":"71.1580","PERIAPSIS":"546.241","INCLINATION":"53.0534"},{"APOAPSIS":"548.232","EPOCH":"2022-12-12T17:21:07.959456","OBJECT_TYPE":"PAYLOAD","GP_ID":"220183358","CLASSIFICATION_TYPE":"U","DECAY_DATE":null,"MEAN_ELEMENT_THEORY":"SGP4","TLE_LINE1":"1 47977U 21024A   22346.72300879  .00007576  00000-0  52680-3 0  9995","LAUNCH_DATE":"2021-03-24","OBJECT_NAME":"STARLINK-2087","NORAD_CAT_ID":"47977","FILE":"3694665","OBJECT_ID":"2021-024A","RCS_SIZE":"LARGE","SITE":"AFETR","EPHEMERIS_TYPE":"0","REV_AT_EPOCH":"9588","ECCENTRICITY":"0.00015240","SEMIMAJOR_AXIS":"6925.312","RA_OF_ASC_NODE":"237.1750","MEAN_MOTION_DOT":"0.00007576","MEAN_ANOMALY":"289.7246","PERIOD":"95.591","COUNTRY_CODE":"US","ELEMENT_SET_NO":"999","TLE_LINE2":"2 47977  53.0532 237.1750 0001524  70.3907 289.7246 15.06412072 95883","CENTER_NAME":"EARTH","PERIAPSIS":"546.121","ARG_OF_PERICENTER":"70.3907","INCLINATION":"53.0532","MEAN_MOTION":"15.06412072","TIME_SYSTEM":"UTC","MEAN_MOTION_DDOT":"0.0000000000000","BSTAR":"0.00052680000000","REF_FRAME":"TEME"},{"CLASSIFICATION_TYPE":"U","GP_ID":"220167601","OBJECT_TYPE":"PAYLOAD","EPOCH":"2022-12-12T03:31:48.208800","APOAPSIS":"548.447","TLE_LINE1":"1 47978U 21024B   22346.14708575  .00005797  00000-0  40806-3 0  9997","MEAN_ELEMENT_THEORY":"SGP4","DECAY_DATE":null,"NORAD_CAT_ID":"47978","FILE":"3694071","LAUNCH_DATE":"2021-03-24","OBJECT_NAME":"STARLINK-1647","EPHEMERIS_TYPE":"0","SITE":"AFETR","RCS_SIZE":"LARGE","OBJECT_ID":"2021-024B","RA_OF_ASC_NODE":"249.7461","SEMIMAJOR_AXIS":"6925.436","ECCENTRICITY":"0.00016550","REV_AT_EPOCH":"9617","COUNTRY_CODE":"US","PERIOD":"95.594","MEAN_ANOMALY":"274.8534","MEAN_MOTION_DOT":"0.00005797","MEAN_MOTION":"15.06371452","ARG_OF_PERICENTER":"85.2644","PERIAPSIS":"546.155","INCLINATION":"53.0551","CENTER_NAME":"EARTH","TLE_LINE2":"2 47978  53.0551 249.7461 0001655  85.2644 274.8534 15.06371452 96175","ELEMENT_SET_NO":"999","REF_FRAME":"TEME","BSTAR":"0.00040806000000","MEAN_MOTION_DDOT":"0.0000000000000","TIME_SYSTEM":"UTC"}];
